{
  "type": "FeatureCollection",
  "features": [
    {
      "type": "Feature",
      "properties": {
        "norad_id": 34478,
        "name": "COSMOS 2251 DEB",
        "group": "cosmos-2251-debris",
        "lat": -49.102269778546734,
        "lon": -133.42752166566783,
        "alt_km": 528.2678238942672,
        "timestamp": "2025-12-02T19:35:50.948992+00:00",
        "meta_object_name": "COSMOS 2251 DEB",
        "meta_object_id": "1993-036TX",
        "meta_epoch": "2025-12-02T06:07:06.340800",
        "meta_mean_motion": 15.06660198,
        "meta_eccentricity": 0.0037359,
        "meta_inclination": 74.0425,
        "meta_ra_of_asc_node": 28.4345,
        "meta_arg_of_pericenter": 251.7178,
        "meta_mean_anomaly": 175.1666,
        "meta_ephemeris_type": 0,
        "meta_classification_type": "U",
        "meta_norad_cat_id": 34478,
        "meta_element_set_no": 999,
        "meta_rev_at_epoch": 88815,
        "meta_bstar": 0.0034183,
        "meta_mean_motion_dot": 0.00051868,
        "meta_mean_motion_ddot": 0,
        "tle_line1": "1 34478U 93036TX  25336.25493450  .00051868  00000+0  34183-2 0  9996",
        "tle_line2": "2 34478  74.0425  28.4345 0037359 251.7178 175.1666 15.06660198888158"
      },
      "geometry": {
        "type": "Point",
        "coordinates": [
          -133.42752166566783,
          -49.102269778546734
        ]
      }
    },
    {
      "type": "Feature",
      "properties": {
        "norad_id": 34481,
        "name": "COSMOS 2251 DEB",
        "group": "cosmos-2251-debris",
        "lat": -19.74721735377721,
        "lon": 65.71569201355962,
        "alt_km": 789.4343955490531,
        "timestamp": "2025-12-02T19:35:50.949002+00:00",
        "meta_object_name": "COSMOS 2251 DEB",
        "meta_object_id": "1993-036UA",
        "meta_epoch": "2025-12-02T08:13:58.755360",
        "meta_mean_motion": 14.32481954,
        "meta_eccentricity": 0.0070977,
        "meta_inclination": 73.9803,
        "meta_ra_of_asc_node": 72.5025,
        "meta_arg_of_pericenter": 248.7282,
        "meta_mean_anomaly": 169.0457,
        "meta_ephemeris_type": 0,
        "meta_classification_type": "U",
        "meta_norad_cat_id": 34481,
        "meta_element_set_no": 999,
        "meta_rev_at_epoch": 87300,
        "meta_bstar": 0.00096472,
        "meta_mean_motion_dot": 2.661e-05,
        "meta_mean_motion_ddot": 0,
        "tle_line1": "1 34481U 93036UA  25336.34304115  .00002661  00000+0  96472-3 0  9996",
        "tle_line2": "2 34481  73.9803  72.5025 0070977 248.7282 169.0457 14.32481954873007"
      },
      "geometry": {
        "type": "Point",
        "coordinates": [
          65.71569201355962,
          -19.74721735377721
        ]
      }
    },
    {
      "type": "Feature",
      "properties": {
        "norad_id": 34482,
        "name": "COSMOS 2251 DEB",
        "group": "cosmos-2251-debris",
        "lat": -67.06360437550406,
        "lon": -159.76266899912744,
        "alt_km": 641.0370075110968,
        "timestamp": "2025-12-02T19:35:50.949012+00:00",
        "meta_object_name": "COSMOS 2251 DEB",
        "meta_object_id": "1993-036UB",
        "meta_epoch": "2025-12-02T04:06:23.961888",
        "meta_mean_motion": 14.68777099,
        "meta_eccentricity": 0.00458768,
        "meta_inclination": 74.0376,
        "meta_ra_of_asc_node": 244.0481,
        "meta_arg_of_pericenter": 305.9778,
        "meta_mean_anomaly": 169.4054,
        "meta_ephemeris_type": 0,
        "meta_classification_type": "U",
        "meta_norad_cat_id": 34482,
        "meta_element_set_no": 999,
        "meta_rev_at_epoch": 88032,
        "meta_bstar": 0.002607818,
        "meta_mean_motion_dot": 0.0001546,
        "meta_mean_motion_ddot": 0,
        "tle_line1": "1 34482U 93036UB  25336.17111067  .00015460  00000+0  26078-2 0  9995",
        "tle_line2": "2 34482  74.0376 244.0481 0045876 305.9778 169.4054 14.68777099880320"
      },
      "geometry": {
        "type": "Point",
        "coordinates": [
          -159.76266899912744,
          -67.06360437550406
        ]
      }
    },
    {
      "type": "Feature",
      "properties": {
        "norad_id": 34544,
        "name": "COSMOS 2251 DEB",
        "group": "cosmos-2251-debris",
        "lat": -59.12778985873269,
        "lon": -168.7610424602612,
        "alt_km": 859.0738075897852,
        "timestamp": "2025-12-02T19:35:50.949023+00:00",
        "meta_object_name": "COSMOS 2251 DEB",
        "meta_object_id": "1993-036UE",
        "meta_epoch": "2025-12-02T02:58:13.056672",
        "meta_mean_motion": 13.54654027,
        "meta_eccentricity": 0.03847802,
        "meta_inclination": 73.9153,
        "meta_ra_of_asc_node": 221.2162,
        "meta_arg_of_pericenter": 251.6007,
        "meta_mean_anomaly": 264.6648,
        "meta_ephemeris_type": 0,
        "meta_classification_type": "U",
        "meta_norad_cat_id": 34544,
        "meta_element_set_no": 999,
        "meta_rev_at_epoch": 82738,
        "meta_bstar": 0.00020621286,
        "meta_mean_motion_dot": 2.02e-06,
        "meta_mean_motion_ddot": 0,
        "tle_line1": "1 34544U 93036UE  25336.12376223  .00000202  00000+0  20621-3 0  9993",
        "tle_line2": "2 34544  73.9153 221.2162 0384780 251.6007 264.6648 13.54654027827388"
      },
      "geometry": {
        "type": "Point",
        "coordinates": [
          -168.7610424602612,
          -59.12778985873269
        ]
      }
    },
    {
      "type": "Feature",
      "properties": {
        "norad_id": 34546,
        "name": "COSMOS 2251 DEB",
        "group": "cosmos-2251-debris",
        "lat": -60.691978389491695,
        "lon": 118.35703575285933,
        "alt_km": 749.6796466520846,
        "timestamp": "2025-12-02T19:35:50.949033+00:00",
        "meta_object_name": "COSMOS 2251 DEB",
        "meta_object_id": "1993-036UG",
        "meta_epoch": "2025-12-01T23:04:41.348352",
        "meta_mean_motion": 14.45325488,
        "meta_eccentricity": 0.00216513,
        "meta_inclination": 74.0312,
        "meta_ra_of_asc_node": 269.2805,
        "meta_arg_of_pericenter": 344.1996,
        "meta_mean_anomaly": 134.3223,
        "meta_ephemeris_type": 0,
        "meta_classification_type": "U",
        "meta_norad_cat_id": 34546,
        "meta_element_set_no": 999,
        "meta_rev_at_epoch": 87870,
        "meta_bstar": 0.00083166438,
        "meta_mean_motion_dot": 2.904e-05,
        "meta_mean_motion_ddot": 0,
        "tle_line1": "1 34546U 93036UG  25335.96158968  .00002904  00000+0  83166-3 0  9994",
        "tle_line2": "2 34546  74.0312 269.2805 0021651 344.1996 134.3223 14.45325488878706"
      },
      "geometry": {
        "type": "Point",
        "coordinates": [
          118.35703575285933,
          -60.691978389491695
        ]
      }
    },
    {
      "type": "Feature",
      "properties": {
        "norad_id": 34547,
        "name": "COSMOS 2251 DEB",
        "group": "cosmos-2251-debris",
        "lat": -18.029755962053525,
        "lon": -54.61638918918097,
        "alt_km": 646.354559197448,
        "timestamp": "2025-12-02T19:35:50.949043+00:00",
        "meta_object_name": "COSMOS 2251 DEB",
        "meta_object_id": "1993-036UH",
        "meta_epoch": "2025-12-02T10:32:28.829184",
        "meta_mean_motion": 14.71896843,
        "meta_eccentricity": 0.0018915,
        "meta_inclination": 74.0295,
        "meta_ra_of_asc_node": 120.7688,
        "meta_arg_of_pericenter": 201.1584,
        "meta_mean_anomaly": 158.8808,
        "meta_ephemeris_type": 0,
        "meta_classification_type": "U",
        "meta_norad_cat_id": 34547,
        "meta_element_set_no": 999,
        "meta_rev_at_epoch": 88370,
        "meta_bstar": 0.0023605,
        "meta_mean_motion_dot": 0.00014826,
        "meta_mean_motion_ddot": 0,
        "tle_line1": "1 34547U 93036UH  25336.43922256  .00014826  00000+0  23605-2 0  9994",
        "tle_line2": "2 34547  74.0295 120.7688 0018915 201.1584 158.8808 14.71896843883704"
      },
      "geometry": {
        "type": "Point",
        "coordinates": [
          -54.61638918918097,
          -18.029755962053525
        ]
      }
    },
    {
      "type": "Feature",
      "properties": {
        "norad_id": 34553,
        "name": "COSMOS 2251 DEB",
        "group": "cosmos-2251-debris",
        "lat": -66.24076929857253,
        "lon": 71.36268344801282,
        "alt_km": 696.712223777311,
        "timestamp": "2025-12-02T19:35:50.949054+00:00",
        "meta_object_name": "COSMOS 2251 DEB",
        "meta_object_id": "1993-036UP",
        "meta_epoch": "2025-12-02T02:40:06.218112",
        "meta_mean_motion": 14.57554292,
        "meta_eccentricity": 0.00197506,
        "meta_inclination": 74.0258,
        "meta_ra_of_asc_node": 212.1081,
        "meta_arg_of_pericenter": 290.3209,
        "meta_mean_anomaly": 222.2069,
        "meta_ephemeris_type": 0,
        "meta_classification_type": "U",
        "meta_norad_cat_id": 34553,
        "meta_element_set_no": 999,
        "meta_rev_at_epoch": 87941,
        "meta_bstar": 0.0013243966,
        "meta_mean_motion_dot": 6.018e-05,
        "meta_mean_motion_ddot": 0,
        "tle_line1": "1 34553U 93036UP  25336.11118308  .00006018  00000+0  13244-2 0  9993",
        "tle_line2": "2 34553  74.0258 212.1081 0019750 290.3209 222.2069 14.57554292879416"
      },
      "geometry": {
        "type": "Point",
        "coordinates": [
          71.36268344801282,
          -66.24076929857253
        ]
      }
    }
  ]
}